[{"OBJECT_NAME":"STARLINK-4364","OBJECT_ID":"2022-084AT","EPOCH":"2026-03-09T17:33:44.095968","MEAN_MOTION":15.05648984,"ECCENTRICITY":6.522e-5,"INCLINATION":97.6041,"RA_OF_ASC_NODE":131.2925,"ARG_OF_PERICENTER":81.7209,"MEAN_ANOMALY":278.4091,"EPHEMERIS_TYPE":0,"CLASSIFICATION_TYPE":"U","NORAD_CAT_ID":53230,"ELEMENT_SET_NO":999,"REV_AT_EPOCH":19939,"BSTAR":3.3856851e-5,"MEAN_MOTION_DOT":4.28e-6,"MEAN_MOTION_DDOT":0},{"OBJECT_NAME":"PEGASUS DEB","OBJECT_ID":"1994-029AGC","EPOCH":"2026-03-05T08:27:18.984384","MEAN_MOTION":14.52218034,"ECCENTRICITY":0.0236757,"INCLINATION":81.9426,"RA_OF_ASC_NODE":296.4283,"ARG_OF_PERICENTER":114.8689,"MEAN_ANOMALY":247.7324,"EPHEMERIS_TYPE":0,"CLASSIFICATION_TYPE":"U","NORAD_CAT_ID":39929,"ELEMENT_SET_NO":999,"REV_AT_EPOCH":61587,"BSTAR":0.0010545,"MEAN_MOTION_DOT":6.215e-5,"MEAN_MOTION_DDOT":0}]
